GUOWANG OBJECT D        
1 69575U 26137D   26188.49450542 -.00000167  00000+0 -17233-4 0  9994
2 69575  49.9955 174.4863 0011089 291.7123  68.2594 13.89827690  2854
GUOWANG OBJECT E        
1 69576U 26137E   26188.49352111 -.00000231  00000+0 -68481-4 0  9991
2 69576  50.0032 174.5043 0011231 295.1696  64.8037 13.89825253  2854
GUOWANG OBJECT F        
1 69577U 26137F   26188.49266887 -.00000225  00000+0 -63624-4 0  9993
2 69577  50.0023 174.4976 0010836 294.9267  65.0505 13.89809671  2859
GUOWANG OBJECT G        
1 69578U 26137G   26188.49177663 -.00000243  00000+0 -78595-4 0  9990
2 69578  49.9951 174.4735 0010828 294.6672  65.3098 13.89794637  2853
GUOWANG OBJECT H        
1 69579U 26137H   26176.48489301  .00000037  00000+0  14270-3 0  9990
2 69579  49.9967 222.2731 0010122 259.8752 100.1006 13.92076941  1185
GUOWANG OBJECT J        
1 69580U 26137J   26178.27848690  .00000022  00000+0  13174-3 0  9997
2 69580  49.9961 215.0979 0011832 257.3150 102.6427 13.91997107  1436
CENTISPACE-1 GROUP 05 O*
1 69582U 26138A   26188.47963432 -.00000276  00000+0 -62455-4 0  9995
2 69582  55.1386 206.2392 0010812 326.9154  33.1143 14.15471158  2897
CENTISPACE-1 GROUP 05 O*
1 69583U 26138B   26188.54763243 -.00000344  00000+0 -96523-4 0  9991
2 69583  55.1382 205.9631 0009784 327.3115  32.7252 14.15651743  2902
CENTISPACE-1 GROUP 05 O*
1 69584U 26138C   26188.54640604 -.00000359  00000+0 -10407-3 0  9999
2 69584  55.1388 205.9652 0009706 329.0047  31.0354 14.15735815  2907
CENTISPACE-1 GROUP 05 O*
1 69585U 26138D   26188.47332347 -.00000429  00000+0 -13919-3 0  9993
2 69585  55.1389 206.2043 0009284 327.8217  32.2189 14.15922379  2893
CENTISPACE-1 GROUP 05 O*
1 69586U 26138E   26188.54296918 -.00000415  00000+0 -13185-3 0  9995
2 69586  55.1382 205.9456 0009019 328.4222  31.6210 14.15989162  2903
CENTISPACE-1 GROUP 05 O*
1 69587U 26138F   26188.54389892 -.00000413  00000+0 -13099-3 0  9992
2 69587  55.1385 205.9519 0008907 332.7838  27.2668 14.15912238  2901
CENTISPACE-1 GROUP 05 O*
1 69588U 26138G   26187.41208090 -.00000465  00000+0 -15691-3 0  9995
2 69588  55.1388 210.1104 0008089 329.6669  30.3836 14.16077285  2740
SPACEMOBILE-008         
1 69589U 26139A   26188.42315775  .00000613  00000+0  51460-4 0  9996
2 69589  52.9937 170.6932 0004639  37.6326 322.4989 15.12794365  3048
SPACEMOBILE-009         
1 69590U 26139B   26188.35850117  .00000601  00000+0  50953-4 0  9997
2 69590  52.9928 170.9976 0004892  32.8078 327.3216 15.12687590  3030
SPACEMOBILE-010         
1 69591U 26139C   26188.42681726  .00000587  00000+0  50381-4 0  9992
2 69591  52.9932 170.7141 0004774  24.0576 336.0637 15.12518827  3055
KUIPER-00423            
1 69592U 26140A   26188.45289987  .00021769  00000+0  57148-3 0  9993
2 69592  51.8806 300.5503 0013494 240.2279 119.7366 15.38480743  4352
KUIPER-00428            
1 69593U 26140B   26188.48314944  .00016183  00000+0  45213-3 0  9993
2 69593  51.8801 300.7443 0007543   7.1689 352.9404 15.36824721  4356
KUIPER-00481            
1 69594U 26140C   26188.46104617  .00018204  00000+0  49027-3 0  9999
2 69594  51.8777 300.5983 0011318 250.0160 109.9609 15.37841346  4354
KUIPER-00490            
1 69595U 26140D   26188.47059889  .00017209  00000+0  46494-3 0  9990
2 69595  51.8769 300.6576 0006234 310.7382  49.3063 15.37825648  4354
KUIPER-00493            
1 69596U 26140E   26188.48704693  .00014185  00000+0  40124-3 0  9996
2 69596  51.8805 300.7698 0007297  16.5547 343.5676 15.36551333  4351
KUIPER-00496            
1 69597U 26140F   26188.36962572 -.00007728  00000+0 -21682-3 0  9991
2 69597  51.8797 301.4752 0011311  12.0846 348.0409 15.34409240  4335
KUIPER-00513            
1 69598U 26140G   26188.46832063  .00014783  00000+0  39838-3 0  9993
2 69598  51.8794 300.6506 0007217 308.9156  51.1187 15.38024463  4353
KUIPER-00516            
1 69599U 26140H   26188.47380025  .00019735  00000+0  53762-3 0  9995
2 69599  51.8787 300.6808 0006455 326.6786  33.3794 15.37468852  4359
KUIPER-00517            
1 69600U 26140J   26188.45646448  .00023651  00000+0  61647-3 0  9993
2 69600  51.8771 300.5680 0010120 261.3507  98.6334 15.38686598  4356
KUIPER-00520            
1 69601U 26140K   26188.47493855  .00017158  00000+0  46819-3 0  9997
2 69601  51.8821 300.6971 0006304 327.9792  32.0811 15.37519871  4351
KUIPER-00522            
1 69602U 26140L   26188.45238355  .00012639  00000+0  33628-3 0  9991
2 69602  51.8789 300.5443 0013275 236.5674 123.4044 15.38509840  4356
KUIPER-00528            
1 69603U 26140M   26188.47687104  .00015913  00000+0  43720-3 0  9996
2 69603  51.8780 300.6994 0005345 334.1966  25.8753 15.37370231  4359
KUIPER-00532            
1 69604U 26140N   26188.48397573  .00017380  00000+0  48763-3 0  9998
2 69604  51.8779 300.7442 0005343  11.6918 348.4191 15.36647798  4353
