OBJECT_NAME,OBJECT_ID,EPOCH,MEAN_MOTION,ECCENTRICITY,INCLINATION,RA_OF_ASC_NODE,ARG_OF_PERICENTER,MEAN_ANOMALY,EPHEMERIS_TYPE,CLASSIFICATION_TYPE,NORAD_CAT_ID,ELEMENT_SET_NO,REV_AT_EPOCH,BSTAR,MEAN_MOTION_DOT,MEAN_MOTION_DDOT
GUOWANG OBJECT D,2026-137D,2026-07-07T11:52:05.268288,13.89827690,.0011089,49.9955,174.4863,291.7123,68.2594,0,U,69575,999,285,-.17233E-4,-.167E-5,0
GUOWANG OBJECT E,2026-137E,2026-07-07T11:50:40.223904,13.89825253,.0011231,50.0032,174.5043,295.1696,64.8037,0,U,69576,999,285,-.68481E-4,-.231E-5,0
GUOWANG OBJECT F,2026-137F,2026-07-07T11:49:26.590368,13.89809671,.0010836,50.0023,174.4976,294.9267,65.0505,0,U,69577,999,285,-.63624E-4,-.225E-5,0
GUOWANG OBJECT G,2026-137G,2026-07-07T11:48:09.500832,13.89794637,.0010828,49.9951,174.4735,294.6672,65.3098,0,U,69578,999,285,-.78595E-4,-.243E-5,0
GUOWANG OBJECT H,2026-137H,2026-06-25T11:38:14.756064,13.92076941,.0010122,49.9967,222.2731,259.8752,100.1006,0,U,69579,999,118,.1427E-3,.37E-6,0
GUOWANG OBJECT J,2026-137J,2026-06-27T06:41:01.268160,13.91997107,.0011832,49.9961,215.0979,257.3150,102.6427,0,U,69580,999,143,.13174E-3,.22E-6,0
CENTISPACE-1 GROUP 05 OBJECT A,2026-138A,2026-07-07T11:30:40.405248,14.15471158,.0010812,55.1386,206.2392,326.9154,33.1143,0,U,69582,999,289,-.62455E-4,-.276E-5,0
CENTISPACE-1 GROUP 05 OBJECT B,2026-138B,2026-07-07T13:08:35.441952,14.15651743,.0009784,55.1382,205.9631,327.3115,32.7252,0,U,69583,999,290,-.96523E-4,-.344E-5,0
CENTISPACE-1 GROUP 05 OBJECT C,2026-138C,2026-07-07T13:06:49.481856,14.15735815,.0009706,55.1388,205.9652,329.0047,31.0354,0,U,69584,999,290,-.10407E-3,-.359E-5,0
CENTISPACE-1 GROUP 05 OBJECT D,2026-138D,2026-07-07T11:21:35.147808,14.15922379,.0009284,55.1389,206.2043,327.8217,32.2189,0,U,69585,999,289,-.13919E-3,-.429E-5,0
CENTISPACE-1 GROUP 05 OBJECT E,2026-138E,2026-07-07T13:01:52.537152,14.15989162,.0009019,55.1382,205.9456,328.4222,31.6210,0,U,69586,999,290,-.13185E-3,-.415E-5,0
CENTISPACE-1 GROUP 05 OBJECT F,2026-138F,2026-07-07T13:03:12.866688,14.15912238,.0008907,55.1385,205.9519,332.7838,27.2668,0,U,69587,999,290,-.13099E-3,-.413E-5,0
CENTISPACE-1 GROUP 05 OBJECT G,2026-138G,2026-07-06T09:53:23.789760,14.16077285,.00080895,55.1388,210.1104,329.6669,30.3836,0,U,69588,999,274,-.15691084E-3,-.465E-5,0
SPACEMOBILE-008,2026-139A,2026-07-07T10:09:20.829600,15.12794365,.0004639,52.9937,170.6932,37.6326,322.4989,0,U,69589,999,304,.5146E-4,.613E-5,0
SPACEMOBILE-009,2026-139B,2026-07-07T08:36:14.501088,15.12687590,.0004892,52.9928,170.9976,32.8078,327.3216,0,U,69590,999,303,.50953E-4,.601E-5,0
SPACEMOBILE-010,2026-139C,2026-07-07T10:14:37.011264,15.12518827,.0004774,52.9932,170.7141,24.0576,336.0637,0,U,69591,999,305,.50381E-4,.587E-5,0
KUIPER-00423,2026-140A,2026-07-07T10:52:10.548768,15.38480743,.0013494,51.8806,300.5503,240.2279,119.7366,0,U,69592,999,435,.57148E-3,.21769E-3,0
KUIPER-00428,2026-140B,2026-07-07T11:35:44.111616,15.36824721,.0007543,51.8801,300.7443,7.1689,352.9404,0,U,69593,999,435,.45213E-3,.16183E-3,0
KUIPER-00481,2026-140C,2026-07-07T11:03:54.389088,15.37841346,.0011318,51.8777,300.5983,250.0160,109.9609,0,U,69594,999,435,.49027E-3,.18204E-3,0
KUIPER-00490,2026-140D,2026-07-07T11:17:39.744096,15.37825648,.0006234,51.8769,300.6576,310.7382,49.3063,0,U,69595,999,435,.46494E-3,.17209E-3,0
KUIPER-00493,2026-140E,2026-07-07T11:41:20.854752,15.36551333,.0007297,51.8805,300.7698,16.5547,343.5676,0,U,69596,999,435,.40124E-3,.14185E-3,0
KUIPER-00496,2026-140F,2026-07-07T08:52:15.662208,15.34409240,.0011311,51.8797,301.4752,12.0846,348.0409,0,U,69597,999,433,-.21682E-3,-.7728E-4,0
KUIPER-00513,2026-140G,2026-07-07T11:14:22.902432,15.38024463,.0007217,51.8794,300.6506,308.9156,51.1187,0,U,69598,999,435,.39838E-3,.14783E-3,0
KUIPER-00516,2026-140H,2026-07-07T11:22:16.341600,15.37468852,.0006455,51.8787,300.6808,326.6786,33.3794,0,U,69599,999,435,.53762E-3,.19735E-3,0
KUIPER-00517,2026-140J,2026-07-07T10:57:18.531072,15.38686598,.001012,51.8771,300.5680,261.3507,98.6334,0,U,69600,999,435,.61647E-3,.23651E-3,0
KUIPER-00520,2026-140K,2026-07-07T11:23:54.690720,15.37519871,.0006304,51.8821,300.6971,327.9792,32.0811,0,U,69601,999,435,.46819E-3,.17158E-3,0
KUIPER-00522,2026-140L,2026-07-07T10:51:25.938720,15.38509840,.0013275,51.8789,300.5443,236.5674,123.4044,0,U,69602,999,435,.33628E-3,.12639E-3,0
KUIPER-00528,2026-140M,2026-07-07T11:26:41.657856,15.37370231,.0005345,51.8780,300.6994,334.1966,25.8753,0,U,69603,999,435,.4372E-3,.15913E-3,0
KUIPER-00532,2026-140N,2026-07-07T11:36:55.503072,15.36647798,.0005343,51.8779,300.7442,11.6918,348.4191,0,U,69604,999,435,.48763E-3,.1738E-3,0
